NORAD_CAT_ID,OBJECT_NAME,OBJECT_TYPE,EPOCH,MEAN_MOTION,ECCENTRICITY,INCLINATION,RA_OF_ASC_NODE,ARG_OF_PERICENTER,MEAN_ANOMALY,BSTAR,MEAN_MOTION_DOT,MEAN_MOTION_DDOT,TLE_LINE0,TLE_LINE1,TLE_LINE2,SEMIMAJOR_AXIS,PERIOD,APOGEE,PERIGEE,DECAYED
53032.0,STARLINK-4115,PAYLOAD,2023-11-03 18:26:17,15.08839825,0.0001683,53.2179,330.9915,83.7151,276.4032,-6.3963e-05,-1.306e-05,0.0,0 STARLINK-4115,1 53032U 22076AY  23307.76825949 -.00001306  00000-0 -63963-4 0  9998,2 53032  53.2179 330.9915 0001683  83.7151 276.4032 15.08839825 73626,6917.881,95.438,540.91,538.582,0.0
53032.0,STARLINK-4115,PAYLOAD,2023-11-04 08:44:46,15.08839461,0.0001789,53.2176,328.3183,97.8407,262.2788,0.00011313,1.513e-05,0.0,0 STARLINK-4115,1 53032U 22076AY  23308.36442292  .00001513  00000-0  11313-3 0  9990,2 53032  53.2176 328.3183 0001789  97.8407 262.2788 15.08839461 74187,6917.882,95.438,540.985,538.509,0.0
53032.0,STARLINK-4115,PAYLOAD,2023-11-04 18:17:05,15.08834349,0.0002082,53.2176,326.5301,89.8709,270.2522,-3.0056e-05,-7.66e-06,0.0,0 STARLINK-4115,1 53032U 22076AY  23308.76186675 -.00000766  00000-0 -30056-4 0  9991,2 53032  53.2176 326.5301 0002082  89.8709 270.2522 15.08834349 73771,6917.898,95.438,541.203,538.322,0.0
53032.0,STARLINK-4115,PAYLOAD,2023-11-05 10:10:55,15.0885602,0.0001851,53.2179,323.559,93.143,266.9774,0.00034036,5.135e-05,0.0,0 STARLINK-4115,1 53032U 22076AY  23309.42425690  .00005135  00000-0  34036-3 0  9992,2 53032  53.2179 323.5590 0001851  93.1430 266.9774 15.08856020 74348,6917.831,95.437,540.977,538.416,0.0
53032.0,STARLINK-4115,PAYLOAD,2023-11-06 00:29:24,15.08856684,0.0002302,53.2164,320.8843,89.5412,270.5844,0.00040841,6.221e-05,0.0,0 STARLINK-4115,1 53032U 22076AY  23310.02041788  .00006221  00000-0  40841-3 0  9990,2 53032  53.2164 320.8843 0002302  89.5412 270.5844 15.08856684 74439,6917.829,95.436,541.287,538.102,0.0
53032.0,STARLINK-4115,PAYLOAD,2023-11-06 08:26:19,15.08865159,0.0002037,53.2173,319.396,82.7365,277.3858,0.00059768,9.243e-05,0.0,0 STARLINK-4115,1 53032U 22076AY  23310.35161398  .00009243  00000-0  59768-3 0  9991,2 53032  53.2173 319.3960 0002037  82.7365 277.3858 15.08865159 74010,6917.803,95.436,541.078,538.259,0.0
53032.0,STARLINK-4115,PAYLOAD,2023-11-06 17:58:39,15.08834531,0.0002202,53.2158,317.6139,80.5648,279.5592,-0.00012397,-2.261e-05,0.0,0 STARLINK-4115,1 53032U 22076AY  23310.74906320 -.00002261  00000-0 -12397-3 0  9998,2 53032  53.2158 317.6139 0002202  80.5648 279.5592 15.08834531 74543,6917.897,95.438,541.285,538.239,0.0
53032.0,STARLINK-4115,PAYLOAD,2023-11-07 09:52:32,15.08780742,0.0001507,53.2175,314.6341,102.1558,257.9603,-0.00035689,-5.954e-05,0.0,0 STARLINK-4115,1 53032U 22076AY  23311.41148949 -.00005954  00000-0 -35689-3 0  9999,2 53032  53.2175 314.6341 0001507 102.1558 257.9603 15.08780742 74640,6918.062,95.441,540.969,538.884,0.0
53032.0,STARLINK-4115,PAYLOAD,2023-11-07 17:49:28,15.08810032,7.89e-05,53.2168,313.1504,127.5589,232.5475,0.0011224,0.00017606,0.0,0 STARLINK-4115,1 53032U 22076AY  23311.74269232  .00017606  00000-0  11224-2 0  9997,2 53032  53.2168 313.1504 0000789 127.5589 232.5475 15.08810032 74690,6917.972,95.439,540.383,539.291,0.0
53032.0,STARLINK-4115,PAYLOAD,2023-11-08 06:32:33,15.08852244,0.0001213,53.2168,310.7701,118.9562,241.1552,0.0014647,0.00023107,0.0,0 STARLINK-4115,1 53032U 22076AY  23312.27261098  .00023107  00000-0  14647-2 0  9993,2 53032  53.2168 310.7701 0001213 118.9562 241.1552 15.08852244 74772,6917.843,95.437,540.547,538.869,0.0
53032.0,STARLINK-4115,PAYLOAD,2023-11-08 12:54:05,15.08875233,8.75e-05,53.2155,309.5821,101.4005,258.7085,0.001399,0.00022069,0.0,0 STARLINK-4115,1 53032U 22076AY  23312.53756366  .00022069  00000-0  13990-2 0  9995,2 53032  53.2155 309.5821 0000875 101.4005 258.7085 15.08875233 74340,6917.773,95.435,540.243,539.032,0.0
53032.0,STARLINK-4115,PAYLOAD,2023-11-09 03:12:33,15.08864061,0.000124,53.2171,306.9057,92.8264,267.287,0.00034616,5.229e-05,0.0,0 STARLINK-4115,1 53032U 22076AY  23313.13371822  .00005229  00000-0  34616-3 0  9990,2 53032  53.2171 306.9057 0001240  92.8264 267.2870 15.08864061 74903,6917.807,95.436,540.53,538.814,0.0
53032.0,STARLINK-4115,PAYLOAD,2023-11-09 09:34:04,15.08879132,0.0001046,53.217,305.7154,95.6695,264.4416,0.0006271,9.717e-05,0.0,0 STARLINK-4115,1 53032U 22076AY  23313.39866832  .00009717  00000-0  62710-3 0  9990,2 53032  53.2170 305.7154 0001046  95.6695 264.4416 15.08879132 74944,6917.761,95.435,540.349,538.902,0.0
53032.0,STARLINK-4115,PAYLOAD,2023-11-10 03:03:19,15.08851211,0.000135,53.2167,302.4457,92.5989,267.5158,2.045e-05,3.8e-07,0.0,0 STARLINK-4115,1 53032U 22076AY  23314.12730965  .00000038  00000-0  20450-4 0  9992,2 53032  53.2167 302.4457 0001350  92.5989 267.5158 15.08851211 75058,6917.846,95.437,540.645,538.777,0.0
53032.0,STARLINK-4115,PAYLOAD,2023-11-10 06:14:05,15.08856648,0.0001408,53.2169,301.8501,96.0218,264.0935,0.00022556,3.305e-05,0.0,0 STARLINK-4115,1 53032U 22076AY  23314.25978678  .00003305  00000-0  22556-3 0  9999,2 53032  53.2169 301.8501 0001408  96.0218 264.0935 15.08856648 74605,6917.83,95.437,540.669,538.72,0.0
53032.0,STARLINK-4115,PAYLOAD,2023-11-10 15:46:24,15.08849064,0.000151,53.2169,300.0659,93.68,266.4365,0.00014438,2.011e-05,0.0,0 STARLINK-4115,1 53032U 22076AY  23314.65722788  .00002011  00000-0  14438-3 0  9995,2 53032  53.2169 300.0659 0001510  93.6800 266.4365 15.08849064 74667,6917.853,95.437,540.762,538.673,0.0
53032.0,STARLINK-4115,PAYLOAD,2023-11-11 02:54:06,15.08837599,0.0001461,53.2167,297.9834,91.4216,268.6944,0.00010101,1.32e-05,0.0,0 STARLINK-4115,1 53032U 22076AY  23315.12091088  .00001320  00000-0  10101-3 0  9995,2 53032  53.2167 297.9834 0001461  91.4216 268.6944 15.08837599 75204,6917.888,95.438,540.763,538.742,0.0
53032.0,STARLINK-4115,PAYLOAD,2023-11-11 06:04:52,15.08845214,0.00016,53.2167,297.3915,91.8015,268.316,0.00031469,4.725e-05,0.0,0 STARLINK-4115,1 53032U 22076AY  23315.25339098  .00004725  00000-0  31469-3 0  9997,2 53032  53.2167 297.3915 0001600  91.8015 268.3160 15.08845214 74753,6917.864,95.437,540.836,538.623,0.0
53032.0,STARLINK-4115,PAYLOAD,2023-11-11 15:37:11,15.08841241,0.0001629,53.2155,295.6058,90.374,269.7439,0.00034194,5.158e-05,0.0,0 STARLINK-4115,1 53032U 22076AY  23315.65083280  .00005158  00000-0  34194-3 0  9999,2 53032  53.2155 295.6058 0001629  90.3740 269.7439 15.08841241 74816,6917.877,95.437,540.869,538.615,0.0
53032.0,STARLINK-4115,PAYLOAD,2023-11-12 09:06:26,15.08850704,0.0001632,53.2156,292.3351,96.8782,263.2395,0.00039019,5.929e-05,0.0,0 STARLINK-4115,1 53032U 22076AY  23316.37946950  .00005929  00000-0  39019-3 0  9998,2 53032  53.2156 292.3351 0001632  96.8782 263.2395 15.08850704 75396,6917.848,95.437,540.842,538.584,0.0
53032.0,STARLINK-4115,PAYLOAD,2023-11-12 15:27:58,15.08844394,0.000169,53.2154,291.1429,88.135,271.9835,0.00024984,3.691e-05,0.0,0 STARLINK-4115,1 53032U 22076AY  23316.64443218  .00003691  00000-0  24984-3 0  9996,2 53032  53.2154 291.1429 0001690  88.1350 271.9835 15.08844394 75434,6917.867,95.437,540.901,538.563,0.0
53032.0,STARLINK-4115,PAYLOAD,2023-11-12 21:49:31,15.08841673,0.000191,53.2171,289.9543,88.2809,271.8402,0.00018227,2.614e-05,0.0,0 STARLINK-4115,1 53032U 22076AY  23316.90939378  .00002614  00000-0  18227-3 0  9999,2 53032  53.2171 289.9543 0001910  88.2809 271.8402 15.08841673 75009,6917.875,95.437,541.062,538.419,0.0
53032.0,STARLINK-4115,PAYLOAD,2023-11-13 02:35:41,15.0883816,0.0001754,53.2161,289.0632,92.4506,267.6687,5.1986e-05,5.39e-06,0.0,0 STARLINK-4115,1 53032U 22076AY  23317.10811429  .00000539  00000-0  51986-4 0  9992,2 53032  53.2161 289.0632 0001754  92.4506 267.6687 15.08838160 75505,6917.886,95.438,540.964,538.538,0.0
53032.0,STARLINK-4115,PAYLOAD,2023-11-13 07:21:50,15.08843503,0.0001903,53.2172,288.17,88.7572,271.3638,0.00016842,2.394e-05,0.0,0 STARLINK-4115,1 53032U 22076AY  23317.30683335  .00002394  00000-0  16842-3 0  9999,2 53032  53.2172 288.1700 0001903  88.7572 271.3638 15.08843503 75066,6917.87,95.437,541.051,538.418,0.0
53032.0,STARLINK-4115,PAYLOAD,2023-11-13 15:18:46,15.08843064,0.0001944,53.2169,286.6827,84.1852,275.9362,0.00011722,1.578e-05,0.0,0 STARLINK-4115,1 53032U 22076AY  23317.63803354  .00001578  00000-0  11722-3 0  9995,2 53032  53.2169 286.6827 0001944  84.1852 275.9362 15.08843064 75113,6917.871,95.437,541.081,538.391,0.0
53032.0,STARLINK-4115,PAYLOAD,2023-11-14 04:01:51,15.08839508,0.0001458,53.2142,284.3034,91.3698,268.7462,9.132e-05,1.166e-05,0.0,0 STARLINK-4115,1 53032U 22076AY  23318.16795389  .00001166  00000-0  91320-4 0  9998,2 53032  53.2142 284.3034 0001458  91.3698 268.7462 15.08839508 75666,6917.882,95.438,540.756,538.738,0.0
53032.0,STARLINK-4115,PAYLOAD,2023-11-14 07:12:37,15.08843368,0.0001661,53.2162,283.7108,88.2293,271.8889,8.7399e-05,1.103e-05,0.0,0 STARLINK-4115,1 53032U 22076AY  23318.30043312  .00001103  00000-0  87399-4 0  9998,2 53032  53.2162 283.7108 0001661  88.2293 271.8889 15.08843368 75213,6917.87,95.437,540.884,538.586,0.0
53032.0,STARLINK-4115,PAYLOAD,2023-11-14 15:09:33,15.08841414,0.0001681,53.2184,282.2204,87.7024,272.416,-0.00012085,-2.211e-05,0.0,0 STARLINK-4115,1 53032U 22076AY  23318.63163403 -.00002211  00000-0 -12085-3 0  9990,2 53032  53.2184 282.2204 0001681  87.7024 272.4160 15.08841414 75260,6917.876,95.437,540.904,538.578,0.0
53032.0,STARLINK-4115,PAYLOAD,2023-11-15 07:03:24,15.08842917,0.0001724,53.2175,279.2462,90.1588,269.9602,0.00010025,1.308e-05,0.0,0 STARLINK-4115,1 53032U 22076AY  23319.29403547  .00001308  00000-0  10025-3 0  9995,2 53032  53.2175 279.2462 0001724  90.1588 269.9602 15.08842917 75837,6917.871,95.437,540.929,538.544,0.0
53032.0,STARLINK-4115,PAYLOAD,2023-11-15 15:00:20,15.08843214,0.0001695,53.2175,277.7606,89.3862,270.7325,8.4321e-05,1.054e-05,0.0,0 STARLINK-4115,1 53032U 22076AY  23319.62523575  .00001054  00000-0  84321-4 0  9995,2 53032  53.2175 277.7606 0001695  89.3862 270.7325 15.08843214 75419,6917.871,95.437,540.908,538.563,0.0
